{
"type": "FeatureCollection",
"name": "emprise",
"crs": { "type": "name", "properties": { "name": "urn:ogc:def:crs:OGC:1.3:CRS84" } },
"features": [
{ "type": "Feature", "properties": { "nom": "Vitrolles - etang de Berre (extrait Sentinel-2 reel)", "date_acquisition": "2024-08-06", "scene_id": "S2B_31TFJ_20240806_0_L2A" }, "geometry": { "type": "Polygon", "coordinates": [ [ [ 5.255068035275576, 43.429213290691607 ], [ 5.256274739843126, 43.459983337034096 ], [ 5.215020314477202, 43.460834387620913 ], [ 5.213835650318222, 43.430063867037717 ], [ 5.255068035275576, 43.429213290691607 ] ] ] } }
]
}
