{"type": "FeatureCollection", "name": "emprise", "crs": {"type": "name", "properties": {"name": "urn:ogc:def:crs:OGC:1.3:CRS84"}}, "features": [{"type": "Feature", "properties": {"nom": "Paris centre (extrait Sentinel-2 reel)", "date_acquisition": "2026-08-12", "scene_id": "S2B_31UDQ_20260812_0_L2A"}, "geometry": {"type": "Polygon", "coordinates": [[[2.284911880614997, 48.844657663949995], [2.284494566780553, 48.8750533737419], [2.3350737378700597, 48.875345008985676], [2.3354615546286084, 48.84494913709131], [2.284911880614997, 48.844657663949995]]]}}]}